{
  "norad_id": 58161,
  "name": "STARLINK-30773",
  "history": [
    {
      "epoch": "2026-03-28T20:27:48.780288Z",
      "apogee_km": 476.14422217822994,
      "perigee_km": 474.31245469057194,
      "latitude_deg": 2.8186009669212263e-05,
      "longitude_deg": -2.6655742468021044,
      "height_km": 476.0131709019021,
      "semi_major_axis_km": 6853.365338434401,
      "eccentricity": 0.00013364,
      "inclination_deg": 53.1595,
      "raan_deg": 130.5548,
      "arg_perigee_deg": 82.9061,
      "mean_anomaly_deg": 277.2092,
      "mean_motion_rev_day": 15.30195556
    },
    {
      "epoch": "2026-03-29T02:44:01.789440Z",
      "apogee_km": 476.27818473392927,
      "perigee_km": 474.202982001686,
      "latitude_deg": -1.6606731682228003e-05,
      "longitude_deg": -98.19152368163454,
      "height_km": 476.14658934351814,
      "semi_major_axis_km": 6853.377583367807,
      "eccentricity": 0.0001514,
      "inclination_deg": 53.1601,
      "raan_deg": 129.3406,
      "arg_perigee_deg": 90.4561,
      "mean_anomaly_deg": 269.6613,
      "mean_motion_rev_day": 15.30191455
    },
    {
      "epoch": "2026-03-30T02:14:49.597440Z",
      "apogee_km": 476.27172175118903,
      "perigee_km": 474.193231856264,
      "latitude_deg": 2.5902925655134158e-05,
      "longitude_deg": -96.40794754877048,
      "height_km": 476.2817558894267,
      "semi_major_axis_km": 6853.369476803727,
      "eccentricity": 0.00015164,
      "inclination_deg": 53.1607,
      "raan_deg": 124.789,
      "arg_perigee_deg": 98.38,
      "mean_anomaly_deg": 261.7373,
      "mean_motion_rev_day": 15.3019417
    },
    {
      "epoch": "2026-03-30T08:31:02.438976Z",
      "apogee_km": 476.2606342877016,
      "perigee_km": 474.2098311807795,
      "latitude_deg": 4.933624948162918e-05,
      "longitude_deg": 168.06785446134194,
      "height_km": 476.2329882159607,
      "semi_major_axis_km": 6853.37223273424,
      "eccentricity": 0.00014962,
      "inclination_deg": 53.1606,
      "raan_deg": 123.5758,
      "arg_perigee_deg": 95.5927,
      "mean_anomaly_deg": 264.5245,
      "mean_motion_rev_day": 15.30193247
    },
    {
      "epoch": "2026-03-30T19:29:24.961344Z",
      "apogee_km": 476.25104213211216,
      "perigee_km": 474.2353259523816,
      "latitude_deg": 2.2641318706890213e-05,
      "longitude_deg": 0.8999499715299653,
      "height_km": 476.2220394927368,
      "semi_major_axis_km": 6853.380184042247,
      "eccentricity": 0.00014706,
      "inclination_deg": 53.1606,
      "raan_deg": 121.4524,
      "arg_perigee_deg": 94.6095,
      "mean_anomaly_deg": 265.5074,
      "mean_motion_rev_day": 15.30190584
    },
    {
      "epoch": "2026-03-31T11:09:57.120480Z",
      "apogee_km": 476.1341280138113,
      "perigee_km": 474.37554766822086,
      "latitude_deg": -5.967271828992583e-05,
      "longitude_deg": 122.0892191104611,
      "height_km": 476.1426739778693,
      "semi_major_axis_km": 6853.391837841015,
      "eccentricity": 0.0001283,
      "inclination_deg": 53.1614,
      "raan_deg": 118.4195,
      "arg_perigee_deg": 89.3239,
      "mean_anomaly_deg": 270.7908,
      "mean_motion_rev_day": 15.30186681
    },
    {
      "epoch": "2026-04-01T20:05:04.075008Z",
      "apogee_km": 476.05927678743046,
      "perigee_km": 474.42817217500397,
      "latitude_deg": -1.593990161103647e-06,
      "longitude_deg": -19.413231839368777,
      "height_km": 476.16800940525195,
      "semi_major_axis_km": 6853.380724481217,
      "eccentricity": 0.000119,
      "inclination_deg": 53.1602,
      "raan_deg": 112.0479,
      "arg_perigee_deg": 91.8327,
      "mean_anomaly_deg": 268.281,
      "mean_motion_rev_day": 15.30190403
    },
    {
      "epoch": "2026-04-02T18:01:48.185760Z",
      "apogee_km": 476.1158343561792,
      "perigee_km": 474.37644571523833,
      "latitude_deg": 4.479581081537075e-05,
      "longitude_deg": 6.254235443976219,
      "height_km": 476.277676434151,
      "semi_major_axis_km": 6853.3831400357085,
      "eccentricity": 0.0001269,
      "inclination_deg": 53.1599,
      "raan_deg": 107.8004,
      "arg_perigee_deg": 98.8275,
      "mean_anomaly_deg": 261.287,
      "mean_motion_rev_day": 15.30189594
    },
    {
      "epoch": "2026-04-02T18:01:48.186624Z",
      "apogee_km": 476.1157658223483,
      "perigee_km": 474.37651424906926,
      "latitude_deg": 4.5707825745098907e-05,
      "longitude_deg": 6.254232513609694,
      "height_km": 476.2776659171732,
      "semi_major_axis_km": 6853.3831400357085,
      "eccentricity": 0.00012689,
      "inclination_deg": 53.1599,
      "raan_deg": 107.8004,
      "arg_perigee_deg": 98.8275,
      "mean_anomaly_deg": 261.287,
      "mean_motion_rev_day": 15.30189594
    },
    {
      "epoch": "2026-04-03T09:42:18.896832Z",
      "apogee_km": 475.73443763340674,
      "perigee_km": 474.6425658144726,
      "latitude_deg": 4.60347104905778e-05,
      "longitude_deg": 127.44891622307865,
      "height_km": 476.1891180159479,
      "semi_major_axis_km": 6853.32550172394,
      "eccentricity": 7.966e-05,
      "inclination_deg": 53.1599,
      "raan_deg": 104.7668,
      "arg_perigee_deg": 100.758,
      "mean_anomaly_deg": 259.3511,
      "mean_motion_rev_day": 15.30208898
    },
    {
      "epoch": "2026-04-04T10:47:11.914080Z",
      "apogee_km": 476.0671485328603,
      "perigee_km": 474.4718125723166,
      "latitude_deg": 2.2447290894254736e-05,
      "longitude_deg": 105.34273674090699,
      "height_km": 476.22692378404093,
      "semi_major_axis_km": 6853.406480552588,
      "eccentricity": 0.00011639,
      "inclination_deg": 53.1592,
      "raan_deg": 99.9116,
      "arg_perigee_deg": 94.2646,
      "mean_anomaly_deg": 265.8488,
      "mean_motion_rev_day": 15.30181777
    },
    {
      "epoch": "2026-04-05T07:09:53.487936Z",
      "apogee_km": 475.9687851852095,
      "perigee_km": 474.52957408748534,
      "latitude_deg": -1.2212886472123815e-06,
      "longitude_deg": 154.88969009797376,
      "height_km": 476.1445503394054,
      "semi_major_axis_km": 6853.386179636347,
      "eccentricity": 0.000105,
      "inclination_deg": 53.1585,
      "raan_deg": 95.9687,
      "arg_perigee_deg": 89.7741,
      "mean_anomaly_deg": 270.338,
      "mean_motion_rev_day": 15.30188576
    }
  ]
}